[{"OBJECT_NAME":"STARLINK-35254","OBJECT_ID":"2025-211Y","EPOCH":"2026-03-09T15:52:20.572608","MEAN_MOTION":15.0566699,"ECCENTRICITY":4.843e-5,"INCLINATION":97.6022,"RA_OF_ASC_NODE":114.1278,"ARG_OF_PERICENTER":101.373,"MEAN_ANOMALY":258.7551,"EPHEMERIS_TYPE":0,"CLASSIFICATION_TYPE":"U","NORAD_CAT_ID":65674,"ELEMENT_SET_NO":999,"REV_AT_EPOCH":2704,"BSTAR":0.00037087316,"MEAN_MOTION_DOT":5.297e-5,"MEAN_MOTION_DDOT":0},{"OBJECT_NAME":"TITAN 3C TRANSTAGE DEB","OBJECT_ID":"1965-082EA","EPOCH":"2026-03-09T23:10:17.723424","MEAN_MOTION":15.08375165,"ECCENTRICITY":0.00122709,"INCLINATION":32.3951,"RA_OF_ASC_NODE":291.2548,"ARG_OF_PERICENTER":351.0252,"MEAN_ANOMALY":9.0191,"EPHEMERIS_TYPE":0,"CLASSIFICATION_TYPE":"U","NORAD_CAT_ID":1835,"ELEMENT_SET_NO":999,"REV_AT_EPOCH":23237,"BSTAR":0.00035954995,"MEAN_MOTION_DOT":5.778e-5,"MEAN_MOTION_DDOT":0}]
